CCSDS_OEM_VERS = 1.0
CREATION_DATE  = 2017-05-11T11:36:02
ORIGINATOR     = GMAT USER

META_START
OBJECT_NAME          = MOPSSat_alt_35785_km_RAAN_180_077
OBJECT_ID            = SatId
CENTER_NAME          = Earth
REF_FRAME            = EME2000
TIME_SYSTEM          = UTC
START_TIME           = 2017-01-01T00:00:00.000
USEABLE_START_TIME   = 2017-01-01T00:00:00.000
USEABLE_STOP_TIME    = 2017-01-02T00:00:00.000
STOP_TIME            = 2017-01-02T00:00:00.000
INTERPOLATION        = Lagrange
INTERPOLATION_DEGREE = 7 
META_STOP


                                                                                   

2017-01-01T06:06:40.000   1.498248474781195e+03  -4.197588385350420e+04   3.672271722646797e+03   3.072932032475917e+00   1.059394337822560e-01  -9.312288252058480e-03
2017-01-01T06:06:50.000   1.528977394282457e+03  -4.197481329764207e+04   3.672177622999183e+03   3.072851595435758e+00   1.081717283787193e-01  -9.507640372475782e-03
2017-01-01T06:07:00.000   1.559705501552702e+03  -4.197372041913288e+04   3.672081569856506e+03   3.072769524375937e+00   1.104039607944115e-01  -9.702987053899513e-03
2017-01-01T06:07:10.000   1.590432780235870e+03  -4.197260521860387e+04   3.671983563273630e+03   3.072685819346798e+00   1.126361298412285e-01  -9.898328192328294e-03
2017-01-01T06:07:20.000   1.621159213664959e+03  -4.197146769670774e+04   3.671883603307661e+03   3.072600480400572e+00   1.148682343084849e-01  -1.009366368178461e-02
2017-01-01T06:07:30.000   1.651884785259894e+03  -4.197030785410554e+04   3.671781690016413e+03   3.072513507590091e+00   1.171002729918164e-01  -1.028899341684409e-02
2017-01-01T06:07:40.000   1.682609478370788e+03  -4.196912569147280e+04   3.671677823458996e+03   3.072424900969258e+00   1.193322446817938e-01  -1.048431729163904e-02
2017-01-01T06:07:50.000   1.713333276971305e+03  -4.196792120947334e+04   3.671572003693464e+03   3.072334660591070e+00   1.215641482142913e-01  -1.067963520426642e-02
2017-01-01T06:08:00.000   1.744056164965305e+03  -4.196669440878533e+04   3.671464230779143e+03   3.072242786509584e+00   1.237959824201192e-01  -1.087494705237996e-02
2017-01-01T06:08:10.000   1.774778126343636e+03  -4.196544529009589e+04   3.671354504776132e+03   3.072149278779502e+00   1.260277461364129e-01  -1.107025273418688e-02
2017-01-01T06:08:20.000   1.805499144786122e+03  -4.196417385411407e+04   3.671242825746462e+03   3.072054137457157e+00   1.282594381777201e-01  -1.126555214591770e-02
2017-01-01T06:08:30.000   1.836219203957107e+03  -4.196288010156212e+04   3.671129193753312e+03   3.071957362599845e+00   1.304910573574702e-01  -1.146084518370506e-02
2017-01-01T06:08:40.000   1.866938287505409e+03  -4.196156403317422e+04   3.671013608860909e+03   3.071858954265736e+00   1.327226024879716e-01  -1.165613174358344e-02
2017-01-01T06:08:50.000   1.897656378769090e+03  -4.196022564971197e+04   3.670896071135887e+03   3.071758912515036e+00   1.349540723589643e-01  -1.185141171961236e-02
2017-01-01T06:09:00.000   1.928373461173186e+03  -4.195886495194481e+04   3.670776580645557e+03   3.071657237408502e+00   1.371854657665132e-01  -1.204668500640475e-02
2017-01-01T06:09:10.000   1.959089518070044e+03  -4.195748194065729e+04   3.670655137458562e+03   3.071553929008019e+00   1.394167815014090e-01  -1.224195149811203e-02
2017-01-01T06:09:20.000   1.989804533444095e+03  -4.195607661661762e+04   3.670531741642103e+03   3.071448987374226e+00   1.416480184003656e-01  -1.243721109290437e-02
2017-01-01T06:09:30.000   2.020518491205305e+03  -4.195464898060919e+04   3.670406393264708e+03   3.071342412568875e+00   1.438791752946940e-01  -1.263246368847908e-02
2017-01-01T06:09:40.000   2.051231375371583e+03  -4.195319903342255e+04   3.670279092395537e+03   3.071234204654240e+00   1.461102510235526e-01  -1.282770918322023e-02
2017-01-01T06:09:50.000   2.081943169578263e+03  -4.195172677587609e+04   3.670149839106190e+03   3.071124363694657e+00   1.483412443983148e-01  -1.302294747308034e-02
2017-01-01T06:10:00.000   2.112653857482924e+03  -4.195023220879952e+04   3.670018633469249e+03   3.071012889755285e+00   1.505721542319765e-01  -1.321817845415390e-02
2017-01-01T06:10:10.000   2.143363422675039e+03  -4.194871533303731e+04   3.669885475558602e+03   3.070899782902373e+00   1.528029793325921e-01  -1.341340202210293e-02
2017-01-01T06:10:20.000   2.174071848700614e+03  -4.194717614944922e+04   3.669750365449471e+03   3.070785043203291e+00   1.550337185050653e-01  -1.360861807231371e-02
2017-01-01T06:10:30.000   2.204779119092710e+03  -4.194561465890751e+04   3.669613303218166e+03   3.070668670726325e+00   1.572643705533657e-01  -1.380382650009072e-02
2017-01-01T06:10:40.000   2.235485217382542e+03  -4.194403086229648e+04   3.669474288942059e+03   3.070550665540633e+00   1.594949342813356e-01  -1.399902720072729e-02
2017-01-01T06:10:50.000   2.266190127209329e+03  -4.194242476050749e+04   3.669333322699137e+03   3.070431027715897e+00   1.617254085006687e-01  -1.419422007020385e-02
2017-01-01T06:11:00.000   2.296893832247051e+03  -4.194079635444195e+04   3.669190404568261e+03   3.070309757322521e+00   1.639557920255910e-01  -1.438940500472238e-02
2017-01-01T06:11:10.000   2.327596316204470e+03  -4.193914564501141e+04   3.669045534629186e+03   3.070186854431656e+00   1.661860836728609e-01  -1.458458190070648e-02
2017-01-01T06:11:20.000   2.358297562898280e+03  -4.193747263313279e+04   3.668898712962134e+03   3.070062319114831e+00   1.684162822670842e-01  -1.477975065526642e-02
2017-01-01T06:11:30.000   2.388997556143375e+03  -4.193577731973494e+04   3.668749939648369e+03   3.069936151444457e+00   1.706463866327414e-01  -1.497491116550152e-02
2017-01-01T06:11:40.000   2.419696279741771e+03  -4.193405970575945e+04   3.668599214770273e+03   3.069808351493866e+00   1.728763955933847e-01  -1.517006332842981e-02
2017-01-01T06:11:50.000   2.450393717451976e+03  -4.193231979216085e+04   3.668446538411359e+03   3.069678919337354e+00   1.751063079694117e-01  -1.536520704079326e-02
2017-01-01T06:12:00.000   2.481089852964555e+03  -4.193055757990987e+04   3.668291910656560e+03   3.069547855050396e+00   1.773361225762909e-01  -1.556034219890245e-02
2017-01-01T06:12:10.000   2.511784669992375e+03  -4.192877306998736e+04   3.668135331591696e+03   3.069415158709212e+00   1.795658382311174e-01  -1.575546869921030e-02
2017-01-01T06:12:20.000   2.542478151866294e+03  -4.192696626341017e+04   3.667976801305738e+03   3.069280830392680e+00   1.817954537232430e-01  -1.595058643574183e-02
2017-01-01T06:12:30.000   2.573170282025160e+03  -4.192513716120039e+04   3.667816319888121e+03   3.069144870180054e+00   1.840249678498704e-01  -1.614569530320905e-02
2017-01-01T06:12:40.000   2.603861043833582e+03  -4.192328576439650e+04   3.667653887429713e+03   3.069007278151793e+00   1.862543794028163e-01  -1.634079519585262e-02
2017-01-01T06:12:50.000   2.634550421287931e+03  -4.192141207401115e+04   3.667489504019113e+03   3.068868054386424e+00   1.884836872197951e-01  -1.653588601192985e-02
2017-01-01T06:13:00.000   2.665238398312135e+03  -4.191951609107303e+04   3.667323169746322e+03   3.068727198963649e+00   1.907128901332658e-01  -1.673096764923797e-02
2017-01-01T06:13:10.000   2.695924958917277e+03  -4.191759781661789e+04   3.667154884701963e+03   3.068584711963682e+00   1.929419869820244e-01  -1.692604000612889e-02
2017-01-01T06:13:20.000   2.726610086803983e+03  -4.191565725171017e+04   3.666984648979173e+03   3.068440593468860e+00   1.951709765823216e-01  -1.712110297898142e-02
2017-01-01T06:13:30.000   2.757293765657691e+03  -4.191369439742788e+04   3.666812462672271e+03   3.068294843562509e+00   1.973998577493108e-01  -1.731615646407839e-02
2017-01-01T06:13:40.000   2.787975979148582e+03  -4.191170925486120e+04   3.666638325876652e+03   3.068147462328853e+00   1.996286292970436e-01  -1.751120035760613e-02
2017-01-01T06:13:50.000   2.818656710636762e+03  -4.190970182513460e+04   3.666462238690711e+03   3.067998449854643e+00   2.018572900170543e-01  -1.770623455378044e-02
2017-01-01T06:14:00.000   2.849335943569456e+03  -4.190767210937844e+04   3.666284201213351e+03   3.067847806227047e+00   2.040858387072121e-01  -1.790125894737148e-02
2017-01-01T06:14:10.000   2.880013661324525e+03  -4.190562010873950e+04   3.666104213544927e+03   3.067695531534458e+00   2.063142741603537e-01  -1.809627343270899e-02
2017-01-01T06:14:20.000   2.910689847902781e+03  -4.190354582433522e+04   3.665922275783208e+03   3.067541625863059e+00   2.085425952145734e-01  -1.829127790808323e-02
2017-01-01T06:14:30.000   2.941364487235667e+03  -4.190144925729932e+04   3.665738388027394e+03   3.067386089300243e+00   2.107708007029332e-01  -1.848627227134410e-02
2017-01-01T06:14:40.000   2.972037563341830e+03  -4.189933040877204e+04   3.665552550377248e+03   3.067228921933868e+00   2.129988894648362e-01  -1.868125642089634e-02
2017-01-01T06:14:50.000   3.002709059929658e+03  -4.189718927992438e+04   3.665364762935236e+03   3.067070123854061e+00   2.152268603171535e-01  -1.887623025317292e-02
2017-01-01T06:15:00.000   3.033378960692440e+03  -4.189502587194086e+04   3.665175025805008e+03   3.066909695151945e+00   2.174547120756669e-01  -1.907119366451137e-02
2017-01-01T06:15:10.000   3.064047249308286e+03  -4.189284018601842e+04   3.664983339091297e+03   3.066747635919553e+00   2.196824435550612e-01  -1.926614655115327e-02
2017-01-01T06:15:20.000   3.094713909145470e+03  -4.189063222339031e+04   3.664789702902018e+03   3.066583946251591e+00   2.219100535475217e-01  -1.946108880737120e-02
2017-01-01T06:15:30.000   3.125378923659416e+03  -4.188840198529496e+04   3.664594117345541e+03   3.066418626243140e+00   2.241375408515711e-01  -1.965602032799225e-02
2017-01-01T06:15:40.000   3.156042276233332e+03  -4.188614947298809e+04   3.664396582531753e+03   3.066251675990554e+00   2.263649042604916e-01  -1.985094100738499e-02
